NORAD_CAT_ID,OBJECT_NAME,OBJECT_TYPE,EPOCH,MEAN_MOTION,ECCENTRICITY,INCLINATION,RA_OF_ASC_NODE,ARG_OF_PERICENTER,MEAN_ANOMALY,BSTAR,MEAN_MOTION_DOT,MEAN_MOTION_DDOT,TLE_LINE0,TLE_LINE1,TLE_LINE2,SEMIMAJOR_AXIS,PERIOD,APOGEE,PERIGEE,DECAYED
54802.0,STARLINK-5426,PAYLOAD,2023-12-25 01:20:35,15.08831836,0.0001461,53.2187,5.2122,94.7475,265.3684,4.5275e-05,4.33e-06,0.0,0 STARLINK-5426,1 54802U 22175AW  23359.05596154  .00000433  00000-0  45275-4 0  9990,2 54802  53.2187   5.2122 0001461  94.7475 265.3684 15.08831836 56915,6917.905,95.438,540.781,538.76,0.0
54802.0,STARLINK-5426,PAYLOAD,2023-12-25 07:42:07,15.08831233,0.0001594,53.2182,4.0229,99.2863,260.831,2.5036e-06,-2.48e-06,0.0,0 STARLINK-5426,1 54802U 22175AW  23359.32092024 -.00000248  00000-0  25036-5 0  9996,2 54802  53.2182   4.0229 0001594  99.2863 260.8310 15.08831233 56954,6917.907,95.438,540.875,538.669,0.0
54802.0,STARLINK-5426,PAYLOAD,2023-12-26 09:08:16,15.08853323,0.000155,53.2184,359.2652,98.442,261.6748,0.00025196,3.726e-05,0.0,0 STARLINK-5426,1 54802U 22175AW  23360.38075156  .00003726  00000-0  25196-3 0  9999,2 54802  53.2184 359.2652 0001550  98.4420 261.6748 15.08853323 57110,6917.84,95.437,540.777,538.632,0.0
54802.0,STARLINK-5426,PAYLOAD,2023-12-27 04:12:55,15.08840014,0.0001819,53.2183,355.6979,90.1519,269.9682,0.00014332,1.994e-05,0.0,0 STARLINK-5426,1 54802U 22175AW  23361.17563920  .00001994  00000-0  14332-3 0  9993,2 54802  53.2183 355.6979 0001819  90.1519 269.9682 15.08840014 57231,6917.88,95.438,541.004,538.487,0.0
54802.0,STARLINK-5426,PAYLOAD,2023-12-27 08:59:04,15.08849271,0.0001629,53.2177,354.8041,97.413,262.7047,0.00026357,3.91e-05,0.0,0 STARLINK-5426,1 54802U 22175AW  23361.37435412  .00003910  00000-0  26357-3 0  9999,2 54802  53.2177 354.8041 0001629  97.4130 262.7047 15.08849271 57266,6917.852,95.437,540.844,538.59,0.0
54802.0,STARLINK-5426,PAYLOAD,2023-12-28 04:03:41,15.08840962,0.0001661,53.2181,351.2362,95.7749,264.3433,-5.6893e-05,-1.193e-05,0.0,0 STARLINK-5426,1 54802U 22175AW  23362.16923506 -.00001193  00000-0 -56893-4 0  9995,2 54802  53.2181 351.2362 0001661  95.7749 264.3433 15.08840962 57389,6917.877,95.437,540.892,538.593,0.0
54802.0,STARLINK-5426,PAYLOAD,2023-12-28 07:14:28,15.0884343,0.0001615,53.2181,350.6431,87.4242,272.6935,-3.2329e-05,-8.03e-06,0.0,0 STARLINK-5426,1 54802U 22175AW  23362.30171639 -.00000803  00000-0 -32329-4 0  9998,2 54802  53.2181 350.6431 0001615  87.4242 272.6935 15.08843430 57409,6917.87,95.437,540.852,538.618,0.0
54802.0,STARLINK-5426,PAYLOAD,2023-12-29 03:54:29,15.08838033,0.0001643,53.219,346.7768,94.4706,265.6474,2.1044e-05,4.7e-07,0.0,0 STARLINK-5426,1 54802U 22175AW  23363.16284195  .00000047  00000-0  21044-4 0  9995,2 54802  53.2190 346.7768 0001643  94.4706 265.6474 15.08838033 57539,6917.886,95.438,540.888,538.615,0.0
54802.0,STARLINK-5426,PAYLOAD,2023-12-29 05:29:52,15.08839977,0.0001685,53.2185,346.4789,97.1671,262.9513,4.0682e-05,3.59e-06,0.0,0 STARLINK-5426,1 54802U 22175AW  23363.22908059  .00000359  00000-0  40682-4 0  9999,2 54802  53.2185 346.4789 0001685  97.1671 262.9513 15.08839977 57543,6917.88,95.438,540.911,538.58,0.0
54802.0,STARLINK-5426,PAYLOAD,2023-12-30 03:45:15,15.08844307,0.00017,53.2189,342.3161,84.9898,275.1288,0.00013033,1.787e-05,0.0,0 STARLINK-5426,1 54802U 22175AW  23364.15643484  .00001787  00000-0  13033-3 0  9995,2 54802  53.2189 342.3161 0001700  84.9898 275.1288 15.08844307 57682,6917.867,95.437,540.908,538.556,0.0
54802.0,STARLINK-5426,PAYLOAD,2023-12-30 08:31:24,15.08854855,0.0001672,53.2185,341.4219,91.7116,268.4068,0.00012189,1.653e-05,0.0,0 STARLINK-5426,1 54802U 22175AW  23364.35514818  .00001653  00000-0  12189-3 0  9998,2 54802  53.2185 341.4219 0001672  91.7116 268.4068 15.08854855 57713,6917.835,95.437,540.857,538.543,0.0
54802.0,STARLINK-5426,PAYLOAD,2023-12-30 22:49:53,15.0884152,0.0001855,53.2191,338.7377,131.5815,228.5337,-2.273e-05,-6.5e-06,0.0,0 STARLINK-5426,1 54802U 22175AW  23364.95131823 -.00000650  00000-0 -22730-4 0  9997,2 54802  53.2191 338.7377 0001855 131.5815 228.5337 15.08841520 59966,6917.876,95.437,541.024,538.457,0.0
54802.0,STARLINK-5426,PAYLOAD,2023-12-31 03:36:03,15.08839747,0.0001782,53.2191,337.8523,118.4233,241.6939,4.3553e-05,4.05e-06,0.0,0 STARLINK-5426,1 54802U 22175AW  23365.15003894  .00000405  00000-0  43553-4 0  9998,2 54802  53.2191 337.8523 0001782 118.4233 241.6939 15.08839747 57832,6917.881,95.438,540.979,538.513,0.0
54802.0,STARLINK-5426,PAYLOAD,2023-12-31 08:22:12,15.08840096,0.0001605,53.2191,336.9608,103.9584,256.1587,5.4922e-05,5.86e-06,0.0,0 STARLINK-5426,1 54802U 22175AW  23365.34876025  .00000586  00000-0  54922-4 0  9995,2 54802  53.2191 336.9608 0001605 103.9584 256.1587 15.08840096 57860,6917.88,95.438,540.855,538.635,0.0
54802.0,STARLINK-5426,PAYLOAD,2024-01-01 03:26:50,15.08841382,0.0001728,53.2188,333.3907,112.366,247.7515,-9.744e-06,-4.43e-06,0.0,0 STARLINK-5426,1 54802U 22175AW  24001.14364099 -.00000443  00000-0 -97440-5 0  9991,2 54802  53.2188 333.3907 0001728 112.3660 247.7515 15.08841382 57983,6917.876,95.437,540.937,538.546,0.0
54802.0,STARLINK-5426,PAYLOAD,2024-01-01 05:02:13,15.08841853,0.0001585,53.2186,333.0936,102.1459,257.9711,-8.472e-07,-3.02e-06,0.0,0 STARLINK-5426,1 54802U 22175AW  24001.20988135 -.00000302  00000-0 -84720-6 0  9993,2 54802  53.2186 333.0936 0001585 102.1459 257.9711 15.08841853 57999,6917.875,95.437,540.836,538.643,0.0
54802.0,STARLINK-5426,PAYLOAD,2024-01-02 01:42:14,15.08842705,0.0001382,53.2181,329.2273,97.181,262.934,0.00012915,1.768e-05,0.0,0 STARLINK-5426,1 54802U 22175AW  24002.07099878  .00001768  00000-0  12915-3 0  9995,2 54802  53.2181 329.2273 0001382  97.1810 262.9340 15.08842705 58121,6917.872,95.437,540.693,538.781,0.0
54802.0,STARLINK-5426,PAYLOAD,2024-01-02 06:28:23,15.0885027,0.0001406,53.2189,328.3384,96.1664,263.9489,0.00020555,2.986e-05,0.0,0 STARLINK-5426,1 54802U 22175AW  24002.26971241  .00002986  00000-0  20555-3 0  9991,2 54802  53.2189 328.3384 0001406  96.1664 263.9489 15.08850270 58159,6917.849,95.437,540.687,538.741,0.0
54802.0,STARLINK-5426,PAYLOAD,2024-01-03 03:08:24,15.08839622,0.0001333,53.2176,324.4716,92.8004,267.314,3.8283e-05,3.21e-06,0.0,0 STARLINK-5426,1 54802U 22175AW  24003.13084387  .00000321  00000-0  38283-4 0  9993,2 54802  53.2176 324.4716 0001333  92.8004 267.3140 15.08839622 58285,6917.882,95.438,540.669,538.824,0.0
54802.0,STARLINK-5426,PAYLOAD,2024-01-03 06:19:11,15.08842005,0.0001344,53.2178,323.8764,89.0532,271.0614,4.5142e-05,4.31e-06,0.0,0 STARLINK-5426,1 54802U 22175AW  24003.26332213  .00000431  00000-0  45142-4 0  9995,2 54802  53.2178 323.8764 0001344  89.0532 271.0614 15.08842005 58309,6917.874,95.437,540.669,538.809,0.0
54802.0,STARLINK-5426,PAYLOAD,2024-01-04 02:59:11,15.08847219,0.0001455,53.2178,320.0109,88.5975,271.5184,-2.3097e-05,-6.56e-06,0.0,0 STARLINK-5426,1 54802U 22175AW  24004.12444082 -.00000656  00000-0 -23097-4 0  9995,2 54802  53.2178 320.0109 0001455  88.5975 271.5184 15.08847219 58432,6917.858,95.437,540.73,538.717,0.0
54802.0,STARLINK-5426,PAYLOAD,2024-01-04 04:34:34,15.08848521,0.0001503,53.218,319.7159,83.3864,276.7299,-1.0423e-05,-4.54e-06,0.0,0 STARLINK-5426,1 54802U 22175AW  24004.19067998 -.00000454  00000-0 -10423-4 0  9994,2 54802  53.2180 319.7159 0001503  83.3864 276.7299 15.08848521 58441,6917.854,95.437,540.759,538.68,0.0
54802.0,STARLINK-5426,PAYLOAD,2024-01-04 20:28:26,15.08839098,0.000164,53.2178,316.745,70.1067,290.0102,0.00010096,1.319e-05,0.0,0 STARLINK-5426,1 54802U 22175AW  24004.85308465  .00001319  00000-0  10096-3 0  9998,2 54802  53.2178 316.7450 0001640  70.1067 290.0102 15.08839098 58542,6917.883,95.438,540.883,538.614,0.0
54802.0,STARLINK-5426,PAYLOAD,2024-01-05 02:49:58,15.08840607,0.0001427,53.2172,315.5523,86.9067,273.2089,0.00010748,1.423e-05,0.0,0 STARLINK-5426,1 54802U 22175AW  24005.11804271  .00001423  00000-0  10748-3 0  9994,2 54802  53.2172 315.5523 0001427  86.9067 273.2089 15.08840607 58581,6917.879,95.438,540.731,538.756,0.0
54802.0,STARLINK-5426,PAYLOAD,2024-01-05 06:00:44,15.08843523,0.0001397,53.2171,314.957,94.4835,265.6317,0.0001401,1.943e-05,0.0,0 STARLINK-5426,1 54802U 22175AW  24005.25051991  .00001943  00000-0  14010-3 0  9995,2 54802  53.2171 314.9570 0001397  94.4835 265.6317 15.08843523 58600,6917.87,95.437,540.701,538.768,0.0
54802.0,STARLINK-5426,PAYLOAD,2024-01-06 02:40:45,15.08847277,0.0001512,53.2178,311.0892,82.789,277.3274,5.8083e-05,6.37e-06,0.0,0 STARLINK-5426,1 54802U 22175AW  24006.11163965  .00000637  00000-0  58083-4 0  9994,2 54802  53.2178 311.0892 0001512  82.7890 277.3274 15.08847277 58738,6917.858,95.437,540.769,538.677,0.0
54802.0,STARLINK-5426,PAYLOAD,2024-01-06 05:51:31,15.08848823,0.0001501,53.2178,310.4936,85.9772,274.1392,6.988e-05,8.25e-06,0.0,0 STARLINK-5426,1 54802U 22175AW  24006.24411771  .00000825  00000-0  69880-4 0  9995,2 54802  53.2178 310.4936 0001501  85.9772 274.1392 15.08848823 58758,6917.853,95.437,540.757,538.68,0.0
54802.0,STARLINK-5426,PAYLOAD,2024-01-07 02:31:32,15.08853388,0.0001404,53.2176,306.6248,120.2772,239.836,-0.00020914,-3.616e-05,0.0,0 STARLINK-5426,1 54802U 22175AW  24007.10524079 -.00003616  00000-0 -20914-3 0  9994,2 54802  53.2176 306.6248 0001404 120.2772 239.8360 15.08853388 58883,6917.839,95.437,540.676,538.733,0.0
54802.0,STARLINK-5426,PAYLOAD,2024-01-07 05:42:19,15.0884902,0.0001485,53.2177,306.0319,118.8759,241.2382,-0.00015996,-2.833e-05,0.0,0 STARLINK-5426,1 54802U 22175AW  24007.23772205 -.00002833  00000-0 -15996-3 0  9998,2 54802  53.2177 306.0319 0001485 118.8759 241.2382 15.08849020 58906,6917.853,95.437,540.745,538.691,0.0
54802.0,STARLINK-5426,PAYLOAD,2024-01-08 00:46:56,15.08847875,0.0001655,53.2181,302.4637,104.5752,255.5424,1.8112e-05,0.0,0.0,0 STARLINK-5426,1 54802U 22175AW  24008.03260054  .00000000  00000-0  18112-4 0  9997,2 54802  53.2181 302.4637 0001655 104.5752 255.5424 15.08847875 59023,6917.856,95.437,540.866,538.576,0.0
